[{"OBJECT_NAME":"STARLINK-30506","OBJECT_ID":"2023-158X","EPOCH":"2026-03-09T22:07:09.098112","MEAN_MOTION":15.27579932,"ECCENTRICITY":5.024e-5,"INCLINATION":42.9941,"RA_OF_ASC_NODE":25.8767,"ARG_OF_PERICENTER":174.9966,"MEAN_ANOMALY":185.0891,"EPHEMERIS_TYPE":0,"CLASSIFICATION_TYPE":"U","NORAD_CAT_ID":58072,"ELEMENT_SET_NO":999,"REV_AT_EPOCH":13360,"BSTAR":0.0005704728,"MEAN_MOTION_DOT":0.00015469,"MEAN_MOTION_DDOT":0},{"OBJECT_NAME":"OBJECT B","OBJECT_ID":"2024-153B","EPOCH":"2026-03-09T23:15:18.632160","MEAN_MOTION":15.30512917,"ECCENTRICITY":0.00113423,"INCLINATION":97.6622,"RA_OF_ASC_NODE":204.9195,"ARG_OF_PERICENTER":149.8438,"MEAN_ANOMALY":210.3457,"EPHEMERIS_TYPE":0,"CLASSIFICATION_TYPE":"U","NORAD_CAT_ID":60746,"ELEMENT_SET_NO":999,"REV_AT_EPOCH":8476,"BSTAR":0.00066193599,"MEAN_MOTION_DOT":0.00019515,"MEAN_MOTION_DDOT":0}]
